start=new Date('2021-12-07T00:00:00.000Z').valueOf();
sats=[{"REV_AT_EPOCH":"8458","MEAN_MOTION_DDOT":"0.0000000000000","MEAN_ANOMALY":"278.5429","REF_FRAME":"TEME","BSTAR":"0.00011418000000","SEMIMAJOR_AXIS":"6925.338","TLE_LINE2":"2 45680  53.0539 194.3659 0002101  81.5798 278.5429 15.06403485 84587","MEAN_MOTION":"15.06403485","MEAN_ELEMENT_THEORY":"SGP4","ECCENTRICITY":"0.00021010","LAUNCH_DATE":"2020-06-04","OBJECT_TYPE":"PAYLOAD","COUNTRY_CODE":"US","INCLINATION":"53.0539","EPHEMERIS_TYPE":"0","ELEMENT_SET_NO":"999","OBJECT_NAME":"STARLINK-1395","MEAN_MOTION_DOT":"0.00001420","NORAD_CAT_ID":"45680","ARG_OF_PERICENTER":"81.5798","DECAY_DATE":null,"PERIAPSIS":"545.748","CLASSIFICATION_TYPE":"U","TIME_SYSTEM":"UTC","PERIOD":"95.592","GP_ID":"191203364","RCS_SIZE":"LARGE","APOAPSIS":"548.658","OBJECT_ID":"2020-035Z","SITE":"AFETR","TLE_LINE1":"1 45680U 20035Z   21340.34158301  .00001420  00000-0  11418-3 0  9993","CENTER_NAME":"EARTH","EPOCH":"2021-12-06T08:11:52.772064","FILE":"3234035","RA_OF_ASC_NODE":"194.3659"},{"OBJECT_ID":"2020-035AA","SITE":"AFETR","TLE_LINE1":"1 45681U 20035AA  21340.33790444 -.00001143  00000-0 -57805-4 0  9998","GP_ID":"191204614","RCS_SIZE":"LARGE","APOAPSIS":"548.857","PERIOD":"95.593","RA_OF_ASC_NODE":"194.3726","EPOCH":"2021-12-06T08:06:34.943616","FILE":"3234035","CENTER_NAME":"EARTH","PERIAPSIS":"545.609","DECAY_DATE":null,"ARG_OF_PERICENTER":"72.6135","CLASSIFICATION_TYPE":"U","TIME_SYSTEM":"UTC","ELEMENT_SET_NO":"999","EPHEMERIS_TYPE":"0","COUNTRY_CODE":"US","INCLINATION":"53.0526","LAUNCH_DATE":"2020-06-04","OBJECT_TYPE":"PAYLOAD","NORAD_CAT_ID":"45681","OBJECT_NAME":"STARLINK-1396","MEAN_MOTION_DOT":"-0.00001143","BSTAR":"-0.00005780500000","REF_FRAME":"TEME","SEMIMAJOR_AXIS":"6925.368","MEAN_ANOMALY":"287.5110","MEAN_MOTION_DDOT":"0.0000000000000","REV_AT_EPOCH":"8459","ECCENTRICITY":"0.00023450","MEAN_MOTION":"15.06393598","TLE_LINE2":"2 45681  53.0526 194.3726 0002345  72.6135 287.5110 15.06393598 84596","MEAN_ELEMENT_THEORY":"SGP4"},{"NORAD_CAT_ID":"45682","MEAN_MOTION_DOT":"-0.00001013","OBJECT_NAME":"STARLINK-1397","EPHEMERIS_TYPE":"0","ELEMENT_SET_NO":"999","OBJECT_TYPE":"PAYLOAD","LAUNCH_DATE":"2020-06-04","INCLINATION":"53.0522","COUNTRY_CODE":"US","ECCENTRICITY":"0.00020530","MEAN_ELEMENT_THEORY":"SGP4","TLE_LINE2":"2 45682  53.0522 192.8569 0002053  79.0763 281.0457 15.06385619 84638","MEAN_MOTION":"15.06385619","SEMIMAJOR_AXIS":"6925.393","BSTAR":"-0.00004912500000","REF_FRAME":"TEME","MEAN_MOTION_DDOT":"0.0000000000000","REV_AT_EPOCH":"8463","MEAN_ANOMALY":"281.0457","RA_OF_ASC_NODE":"192.8569","CENTER_NAME":"EARTH","FILE":"3234296","EPOCH":"2021-12-06T16:14:53.733984","TLE_LINE1":"1 45682U 20035AB  21340.67701081 -.00001013  00000-0 -49125-4 0  9997","OBJECT_ID":"2020-035AB","SITE":"AFETR","PERIOD":"95.593","APOAPSIS":"548.679","GP_ID":"191233967","RCS_SIZE":"LARGE","TIME_SYSTEM":"UTC","CLASSIFICATION_TYPE":"U","ARG_OF_PERICENTER":"79.0763","DECAY_DATE":null,"PERIAPSIS":"545.836"},{"ECCENTRICITY":"0.00020680","MEAN_ELEMENT_THEORY":"SGP4","MEAN_MOTION":"15.06395577","TLE_LINE2":"2 45683  53.0546 194.4318 0002068  77.1255 282.9965 15.06395577 84599","SEMIMAJOR_AXIS":"6925.362","REF_FRAME":"TEME","BSTAR":"0.00013116000000","MEAN_ANOMALY":"282.9965","MEAN_MOTION_DDOT":"0.0000000000000","REV_AT_EPOCH":"8459","NORAD_CAT_ID":"45683","MEAN_MOTION_DOT":"0.00001672","OBJECT_NAME":"STARLINK-1399","ELEMENT_SET_NO":"999","EPHEMERIS_TYPE":"0","INCLINATION":"53.0546","COUNTRY_CODE":"US","OBJECT_TYPE":"PAYLOAD","LAUNCH_DATE":"2020-06-04","TIME_SYSTEM":"UTC","CLASSIFICATION_TYPE":"U","PERIAPSIS":"545.795","ARG_OF_PERICENTER":"77.1255","DECAY_DATE":null,"RA_OF_ASC_NODE":"194.4318","FILE":"3234035","EPOCH":"2021-12-06T07:50:39.613632","CENTER_NAME":"EARTH","TLE_LINE1":"1 45683U 20035AC  21340.32684738  .00001672  00000-0  13116-3 0  9998","OBJECT_ID":"2020-035AC","SITE":"AFETR","APOAPSIS":"548.659","RCS_SIZE":"LARGE","GP_ID":"191203114","PERIOD":"95.592"},{"MEAN_ANOMALY":"281.5333","REV_AT_EPOCH":"8455","MEAN_MOTION_DDOT":"0.0000000000000","SEMIMAJOR_AXIS":"6925.369","BSTAR":"-0.00002677800000","REF_FRAME":"TEME","MEAN_ELEMENT_THEORY":"SGP4","MEAN_MOTION":"15.06393493","TLE_LINE2":"2 45684  53.0536 195.7175 0002067  78.5888 281.5333 15.06393493 84555","ECCENTRICITY":"0.00020670","COUNTRY_CODE":"US","INCLINATION":"53.0536","OBJECT_TYPE":"PAYLOAD","LAUNCH_DATE":"2020-06-04","ELEMENT_SET_NO":"999","EPHEMERIS_TYPE":"0","MEAN_MOTION_DOT":"-0.00000681","OBJECT_NAME":"STARLINK-1401","NORAD_CAT_ID":"45684","PERIAPSIS":"545.802","ARG_OF_PERICENTER":"78.5888","DECAY_DATE":null,"TIME_SYSTEM":"UTC","CLASSIFICATION_TYPE":"U","APOAPSIS":"548.665","GP_ID":"191203863","RCS_SIZE":"LARGE","PERIOD":"95.593","TLE_LINE1":"1 45684U 20035AD  21340.03934731 -.00000681  00000-0 -26778-4 0  9998","SITE":"AFETR","OBJECT_ID":"2020-035AD","FILE":"3234035","EPOCH":"2021-12-06T00:56:39.607584","CENTER_NAME":"EARTH","RA_OF_ASC_NODE":"195.7175"},{"ECCENTRICITY":"0.00020360","MEAN_MOTION":"15.06388367","TLE_LINE2":"2 45685  53.0545 194.5520 0002036  77.1903 282.9314 15.06388367 84598","MEAN_ELEMENT_THEORY":"SGP4","BSTAR":"0.00010076000000","REF_FRAME":"TEME","SEMIMAJOR_AXIS":"6925.384","MEAN_ANOMALY":"282.9314","REV_AT_EPOCH":"8459","MEAN_MOTION_DDOT":"0.0000000000000","NORAD_CAT_ID":"45685","OBJECT_NAME":"STARLINK-1402","MEAN_MOTION_DOT":"0.00001219","ELEMENT_SET_NO":"999","EPHEMERIS_TYPE":"0","INCLINATION":"53.0545","COUNTRY_CODE":"US","LAUNCH_DATE":"2020-06-04","OBJECT_TYPE":"PAYLOAD","CLASSIFICATION_TYPE":"U","TIME_SYSTEM":"UTC","PERIAPSIS":"545.839","DECAY_DATE":null,"ARG_OF_PERICENTER":"77.1903","RA_OF_ASC_NODE":"194.5520","EPOCH":"2021-12-06T07:13:30.858240","FILE":"3234035","CENTER_NAME":"EARTH","OBJECT_ID":"2020-035AE","SITE":"AFETR","TLE_LINE1":"1 45685U 20035AE  21340.30105160  .00001219  00000-0  10076-3 0  9994","RCS_SIZE":"LARGE","GP_ID":"191204116","APOAPSIS":"548.659","PERIOD":"95.593"},{"RCS_SIZE":"LARGE","GP_ID":"191204858","APOAPSIS":"548.814","PERIOD":"95.593","OBJECT_ID":"2020-035AF","SITE":"AFETR","TLE_LINE1":"1 45686U 20035AF  21340.29367362 -.00000814  00000-0 -35719-4 0  9991","EPOCH":"2021-12-06T07:02:53.400768","FILE":"3234035","CENTER_NAME":"EARTH","RA_OF_ASC_NODE":"194.5768","PERIAPSIS":"545.652","DECAY_DATE":null,"ARG_OF_PERICENTER":"74.8567","CLASSIFICATION_TYPE":"U","TIME_SYSTEM":"UTC","COUNTRY_CODE":"US","INCLINATION":"53.0536","LAUNCH_DATE":"2020-06-04","OBJECT_TYPE":"PAYLOAD","ELEMENT_SET_NO":"999","EPHEMERIS_TYPE":"0","OBJECT_NAME":"STARLINK-1404","MEAN_MOTION_DOT":"-0.00000814","NORAD_CAT_ID":"45686","MEAN_ANOMALY":"285.2674","REV_AT_EPOCH":"8459","MEAN_MOTION_DDOT":"0.0000000000000","REF_FRAME":"TEME","BSTAR":"-0.00003571900000","SEMIMAJOR_AXIS":"6925.368","MEAN_MOTION":"15.06393524","TLE_LINE2":"2 45686  53.0536 194.5768 0002283  74.8567 285.2674 15.06393524 84593","MEAN_ELEMENT_THEORY":"SGP4","ECCENTRICITY":"0.00022830"},{"SEMIMAJOR_AXIS":"6917.891","BSTAR":"0.01662700000000","REF_FRAME":"TEME","MEAN_ANOMALY":"238.4117","REV_AT_EPOCH":"8478","MEAN_MOTION_DDOT":"0.0000000000000","ECCENTRICITY":"0.00026980","MEAN_ELEMENT_THEORY":"SGP4","MEAN_MOTION":"15.08836644","TLE_LINE2":"2 45687  53.0057 182.0665 0002698 121.7136 238.4117 15.08836644 84784","ELEMENT_SET_NO":"999","EPHEMERIS_TYPE":"0","INCLINATION":"53.0057","COUNTRY_CODE":"US","OBJECT_TYPE":"PAYLOAD","LAUNCH_DATE":"2020-06-04","NORAD_CAT_ID":"45687","MEAN_MOTION_DOT":"0.00274828","OBJECT_NAME":"STARLINK-1406","PERIAPSIS":"537.889","ARG_OF_PERICENTER":"121.7136","DECAY_DATE":null,"TIME_SYSTEM":"UTC","CLASSIFICATION_TYPE":"U","TLE_LINE1":"1 45687U 20035AG  21340.84459375  .00274828  00000-0  16627-1 0  9999","OBJECT_ID":"2020-035AG","SITE":"AFETR","APOAPSIS":"541.622","GP_ID":"191232215","RCS_SIZE":"LARGE","PERIOD":"95.438","RA_OF_ASC_NODE":"182.0665","FILE":"3234296","EPOCH":"2021-12-06T20:16:12.900000","CENTER_NAME":"EARTH"},{"ECCENTRICITY":"0.00023240","MEAN_MOTION":"15.06396954","TLE_LINE2":"2 45688  53.0532 192.8164 0002324  77.3780 282.7469 15.06396954 84643","MEAN_ELEMENT_THEORY":"SGP4","BSTAR":"0.00009046200000","REF_FRAME":"TEME","SEMIMAJOR_AXIS":"6925.358","REV_AT_EPOCH":"8464","MEAN_MOTION_DDOT":"0.0000000000000","MEAN_ANOMALY":"282.7469","NORAD_CAT_ID":"45688","OBJECT_NAME":"STARLINK-1408","MEAN_MOTION_DOT":"0.00001066","EPHEMERIS_TYPE":"0","ELEMENT_SET_NO":"999","LAUNCH_DATE":"2020-06-04","OBJECT_TYPE":"PAYLOAD","COUNTRY_CODE":"US","INCLINATION":"53.0532","CLASSIFICATION_TYPE":"U","TIME_SYSTEM":"UTC","ARG_OF_PERICENTER":"77.3780","DECAY_DATE":null,"PERIAPSIS":"545.613","RA_OF_ASC_NODE":"192.8164","CENTER_NAME":"EARTH","EPOCH":"2021-12-06T16:25:30.331776","FILE":"3234296","SITE":"AFETR","OBJECT_ID":"2020-035AH","TLE_LINE1":"1 45688U 20035AH  21340.68437884  .00001066  00000-0  90462-4 0  9997","PERIOD":"95.592","RCS_SIZE":"LARGE","GP_ID":"191232966","APOAPSIS":"548.832"},{"MEAN_MOTION_DDOT":"0.0000000000000","REV_AT_EPOCH":"8459","MEAN_ANOMALY":"278.8023","BSTAR":"0.00021165000000","REF_FRAME":"TEME","SEMIMAJOR_AXIS":"6925.408","TLE_LINE2":"2 45689  53.0531 191.8016 0002219  81.3217 278.8023 15.06380676 84591","MEAN_MOTION":"15.06380676","MEAN_ELEMENT_THEORY":"SGP4","ECCENTRICITY":"0.00022190","LAUNCH_DATE":"2020-06-04","OBJECT_TYPE":"PAYLOAD","INCLINATION":"53.0531","COUNTRY_CODE":"US","EPHEMERIS_TYPE":"0","ELEMENT_SET_NO":"999","OBJECT_NAME":"STARLINK-1413","MEAN_MOTION_DOT":"0.00002871","NORAD_CAT_ID":"45689","DECAY_DATE":null,"ARG_OF_PERICENTER":"81.3217","PERIAPSIS":"545.736","CLASSIFICATION_TYPE":"U","TIME_SYSTEM":"UTC","PERIOD":"95.593","RCS_SIZE":"LARGE","GP_ID":"191233217","APOAPSIS":"548.810","SITE":"AFETR","OBJECT_ID":"2020-035AJ","TLE_LINE1":"1 45689U 20035AJ  21340.90923682  .00002871  00000-0  21165-3 0  9997","CENTER_NAME":"EARTH","EPOCH":"2021-12-06T21:49:18.061248","FILE":"3234296","RA_OF_ASC_NODE":"191.8016"}];
